[{"OBJECT_NAME":"LYNK TOWER 6","OBJECT_ID":"2024-043AB","EPOCH":"2026-03-09T21:28:38.303328","MEAN_MOTION":15.29548678,"ECCENTRICITY":0.00097492,"INCLINATION":97.5426,"RA_OF_ASC_NODE":204.1954,"ARG_OF_PERICENTER":232.0253,"MEAN_ANOMALY":128.0107,"EPHEMERIS_TYPE":0,"CLASSIFICATION_TYPE":"U","NORAD_CAT_ID":59123,"ELEMENT_SET_NO":999,"REV_AT_EPOCH":11184,"BSTAR":0.00040142146,"MEAN_MOTION_DOT":0.0001144,"MEAN_MOTION_DDOT":0},{"OBJECT_NAME":"STARLINK-32010","OBJECT_ID":"2024-132B","EPOCH":"2026-03-09T22:21:18.698688","MEAN_MOTION":15.30183516,"ECCENTRICITY":0.00014181,"INCLINATION":53.1617,"RA_OF_ASC_NODE":51.5778,"ARG_OF_PERICENTER":94.2142,"MEAN_ANOMALY":265.902,"EPHEMERIS_TYPE":0,"CLASSIFICATION_TYPE":"U","NORAD_CAT_ID":60279,"ELEMENT_SET_NO":999,"REV_AT_EPOCH":9159,"BSTAR":1.6771462e-5,"MEAN_MOTION_DOT":1.37e-6,"MEAN_MOTION_DDOT":0}]
